stk.v.4.3 

BEGIN Ephemeris 
 
NumberOfEphemerisPoints		146 
ScenarioEpoch	    3 Sep 2020 19: 1:19.334498942 
InterpolationMethod		Lagrange 
InterpolationOrder		5 
CentralBody				Earth 
CoordinateSystem			TEME 
CoordinateSystemEpoch	  3 Sep 2020 19: 1:19.334498942 
DistanceUnit			Kilometers 
 
EphemerisTimePosVel 
 
       0.00000000   -6561.42252829    2863.12132037       0.04561433 -0.178636793 -0.432701650  7.448748142
 END Ephemeris 
